STARLINK-36230          
1 67075U 25298A   26177.49625323  .00000686  00000+0  65305-4 0  9990
2 67075  70.0019 100.1954 0002495 268.0321  92.0552 14.98332889 29511
STARLINK-36240          
1 67076U 25298B   26177.48790043 -.00000718  00000+0 -52406-4 0  9998
2 67076  70.0047 100.1688 0002534 256.7514 103.3362 14.98337847 29513
STARLINK-36243          
1 67077U 25298C   26177.51295022  .00000340  00000+0  36310-4 0  9995
2 67077  70.0014 100.2544 0003032 264.3617  95.7196 14.98334910 29510
STARLINK-36236          
1 67078U 25298D   26177.50460194  .00001575  00000+0  13976-3 0  9992
2 67078  70.0017 100.2240 0002891 269.5393  90.5435 14.98334387 29514
STARLINK-36159          
1 67079U 25298E   26177.52544897  .00003157  00000+0  27226-3 0  9999
2 67079  70.0013  99.9049 0002531 265.4485  94.6385 14.98334879 29526
STARLINK-36158          
1 67080U 25298F   26177.52111127  .00001292  00000+0  11605-3 0  9999
2 67080  70.0041  99.8854 0002660 274.9947  85.0908 14.98328913 29520
STARLINK-35864          
1 67081U 25298G   26177.72974140  .00004241  00000+0  36299-3 0  9997
2 67081  70.0031  99.4108 0002649 247.2646 112.8234 14.98330942 29553
STARLINK-36035          
1 67082U 25298H   26177.13724576  .00006480  00000+0  55026-3 0  9995
2 67082  70.0020 100.9526 0002681 273.2994  86.7858 14.98339676 29469
STARLINK-36170          
1 67083U 25298J   26177.49608569  .00002991  00000+0  25831-3 0  9992
2 67083  70.0013 100.1888 0002482 267.5844  92.5031 14.98340165 29502
STARLINK-36166          
1 67084U 25298K   26177.17481074  .00000925  00000+0  85290-4 0  9999
2 67084  70.0013 101.0760 0002441 270.6676  89.4203 14.98344316 29468
STARLINK-35794          
1 67085U 25298L   26177.74645270  .00007480  00000+0  63386-3 0  9997
2 67085  70.0012  99.4678 0003054 269.3309  90.7500 14.98338087 29558
STARLINK-35841          
1 67086U 25298M   26177.76730429  .00001220  00000+0  10998-3 0  9998
2 67086  70.0021  99.5310 0002464 264.0077  96.0801 14.98331400 29556
STARLINK-35842          
1 67087U 25298N   26177.14158360  .00005117  00000+0  43622-3 0  9998
2 67087  70.0018 100.9802 0003357 263.5229  96.5548 14.98340121 29464
STARLINK-35882          
1 67088U 25298P   26177.51278536  .00001937  00000+0  17003-3 0  9998
2 67088  70.0013 100.2476 0003334 253.6215 106.4577 14.98334003 29511
STARLINK-35763          
1 67089U 25298Q   26177.51712559  .00002481  00000+0  21564-3 0  9999
2 67089  70.0013 100.2681 0002930 270.6701  89.4122 14.98334863 29510
STARLINK-36060          
1 67090U 25298R   26177.75077354  .00001071  00000+0  97531-4 0  9996
2 67090  70.0022  99.4774 0002447 266.7350  93.3529 14.98333178 29550
STARLINK-36097          
1 67091U 25298S   26177.14292718  .00111570  00000+0  27359-2 0  9998
2 67091  69.9940  84.9385 0008417 219.5549 140.5018 15.40136800 29866
STARLINK-35792          
1 67092U 25298T   26177.76748604  .00006662  00000+0  56540-3 0  9997
2 67092  70.0013  99.5353 0002639 265.4245  94.6612 14.98343810 29559
STARLINK-35784          
1 67093U 25298U   26177.53363058  .00001812  00000+0  15960-3 0  9992
2 67093  70.0012  99.9260 0002633 269.1692  90.9166 14.98335266 29527
STARLINK-36202          
1 67094U 25298V   26177.52528212  .00001595  00000+0  14141-3 0  9995
2 67094  70.0014  99.8967 0002978 263.5978  96.4842 14.98333140 29521
STARLINK-36227          
1 67095U 25298W   26177.74659692  .00001195  00000+0  10796-3 0  9995
2 67095  70.0016  99.4617 0003202 249.3002 110.7814 14.98333592 29556
STARLINK-36228          
1 67096U 25298X   26177.49191506  .00000731  00000+0  69010-4 0  9992
2 67096  70.0018 100.1738 0002328 268.1934  91.8959 14.98332538 29518
STARLINK-36222          
1 67097U 25298Y   26177.50443714  .00002087  00000+0  18262-3 0  9994
2 67097  70.0014 100.2165 0002822 270.4129  89.6706 14.98335342 29512
STARLINK-36205          
1 67098U 25298Z   26177.74227528  .00007493  00000+0  63490-3 0  9993
2 67098  70.0019  99.4527 0002962 272.8804  87.2016 14.98343280 29552
STARLINK-36193          
1 67099U 25298AA  26177.72992310  .00012939  00000+0  10907-2 0  9995
2 67099  70.0028  99.4173 0003485 254.2592 105.8183 14.98308891 29550
STARLINK-36215          
1 67100U 25298AB  26177.75060706  .00001785  00000+0  15733-3 0  9996
2 67100  70.0021  99.4713 0002705 266.1577  93.9273 14.98333517 29555
STARLINK-36200          
1 67101U 25298AC  26177.17497658  .00002119  00000+0  18526-3 0  9998
2 67101  70.0015 101.0796 0002597 269.9566  90.1296 14.98335723 29463
STARLINK-36255          
1 67102U 25299A   26177.54931032  .00014336  00000+0  52933-3 0  9994
2 67102  42.9955 274.3238 0000428 266.3426  93.7377 15.27587096 29764
STARLINK-36256          
1 67103U 25299B   26177.60827233  .00024153  00000+0  88447-3 0  9996
2 67103  42.9983 273.9097 0001822 276.7387  83.3258 15.27575341 29778
STARLINK-36258          
1 67104U 25299C   26177.62240610  .00013061  00000+0  48347-3 0  9998
2 67104  42.9974 274.0046 0001491 285.0102  75.0585 15.27569153 29770
