OBJECT_NAME,OBJECT_ID,EPOCH,MEAN_MOTION,ECCENTRICITY,INCLINATION,RA_OF_ASC_NODE,ARG_OF_PERICENTER,MEAN_ANOMALY,EPHEMERIS_TYPE,CLASSIFICATION_TYPE,NORAD_CAT_ID,ELEMENT_SET_NO,REV_AT_EPOCH,BSTAR,MEAN_MOTION_DOT,MEAN_MOTION_DDOT
STARLINK-36230,2025-298A,2026-06-26T11:54:36.279072,14.98332889,.0002495,70.0019,100.1954,268.0321,92.0552,0,U,67075,999,2951,.65305E-4,.686E-5,0
STARLINK-36240,2025-298B,2026-06-26T11:42:34.597152,14.98337847,.0002534,70.0047,100.1688,256.7514,103.3362,0,U,67076,999,2951,-.52406E-4,-.718E-5,0
STARLINK-36243,2025-298C,2026-06-26T12:18:38.899008,14.98334910,.0003032,70.0014,100.2544,264.3617,95.7196,0,U,67077,999,2951,.3631E-4,.34E-5,0
STARLINK-36236,2025-298D,2026-06-26T12:06:37.607616,14.98334387,.0002891,70.0017,100.2240,269.5393,90.5435,0,U,67078,999,2951,.13976E-3,.1575E-4,0
STARLINK-36159,2025-298E,2026-06-26T12:36:38.791008,14.98334879,.0002531,70.0013,99.9049,265.4485,94.6385,0,U,67079,999,2952,.27226E-3,.3157E-4,0
STARLINK-36158,2025-298F,2026-06-26T12:30:24.013728,14.98328913,.000266,70.0041,99.8854,274.9947,85.0908,0,U,67080,999,2952,.11605E-3,.1292E-4,0
STARLINK-35864,2025-298G,2026-06-26T17:30:49.656960,14.98330942,.0002649,70.0031,99.4108,247.2646,112.8234,0,U,67081,999,2955,.36299E-3,.4241E-4,0
STARLINK-36035,2025-298H,2026-06-26T03:17:38.033664,14.98339676,.00026812,70.0020,100.9526,273.2994,86.7858,0,U,67082,999,2946,.55026357E-3,.648E-4,0
STARLINK-36170,2025-298J,2026-06-26T11:54:21.803616,14.98340165,.0002482,70.0013,100.1888,267.5844,92.5031,0,U,67083,999,2950,.25831E-3,.2991E-4,0
STARLINK-36166,2025-298K,2026-06-26T04:11:43.647936,14.98344316,.00024412,70.0013,101.0760,270.6676,89.4203,0,U,67084,999,2946,.85289887E-4,.925E-5,0
STARLINK-35794,2025-298L,2026-06-26T17:54:53.513280,14.98338087,.0003054,70.0012,99.4678,269.3309,90.7500,0,U,67085,999,2955,.63386E-3,.748E-4,0
STARLINK-35841,2025-298M,2026-06-26T18:24:55.090656,14.98331400,.0002464,70.0021,99.5310,264.0077,96.0801,0,U,67086,999,2955,.10998E-3,.122E-4,0
STARLINK-35842,2025-298N,2026-06-26T03:23:52.823040,14.98340121,.00033577,70.0018,100.9802,263.5229,96.5548,0,U,67087,999,2946,.43622466E-3,.5117E-4,0
STARLINK-35882,2025-298P,2026-06-26T12:18:24.655104,14.98334003,.0003334,70.0013,100.2476,253.6215,106.4577,0,U,67088,999,2951,.17003E-3,.1937E-4,0
STARLINK-35763,2025-298Q,2026-06-26T12:24:39.650976,14.98334863,.000293,70.0013,100.2681,270.6701,89.4122,0,U,67089,999,2951,.21564E-3,.2481E-4,0
STARLINK-36060,2025-298R,2026-06-26T18:01:06.833856,14.98333178,.0002447,70.0022,99.4774,266.7350,93.3529,0,U,67090,999,2955,.97531E-4,.1071E-4,0
STARLINK-36097,2025-298S,2026-06-26T03:25:48.908352,15.40136800,.00084179,69.9940,84.9385,219.5549,140.5018,0,U,67091,999,2986,.27359439E-2,.11157E-2,0
STARLINK-35792,2025-298T,2026-06-26T18:25:10.793856,14.98343810,.0002639,70.0013,99.5353,265.4245,94.6612,0,U,67092,999,2955,.5654E-3,.6662E-4,0
STARLINK-35784,2025-298U,2026-06-26T12:48:25.682112,14.98335266,.0002633,70.0012,99.9260,269.1692,90.9166,0,U,67093,999,2952,.1596E-3,.1812E-4,0
STARLINK-36202,2025-298V,2026-06-26T12:36:24.375168,14.98333140,.0002978,70.0014,99.8967,263.5978,96.4842,0,U,67094,999,2952,.14141E-3,.1595E-4,0
STARLINK-36227,2025-298W,2026-06-26T17:55:05.973888,14.98333592,.0003202,70.0016,99.4617,249.3002,110.7814,0,U,67095,999,2955,.10796E-3,.1195E-4,0
STARLINK-36228,2025-298X,2026-06-26T11:48:21.461184,14.98332538,.0002328,70.0018,100.1738,268.1934,91.8959,0,U,67096,999,2951,.6901E-4,.731E-5,0
STARLINK-36222,2025-298Y,2026-06-26T12:06:23.368896,14.98335342,.0002822,70.0014,100.2165,270.4129,89.6706,0,U,67097,999,2951,.18262E-3,.2087E-4,0
STARLINK-36205,2025-298Z,2026-06-26T17:48:52.584192,14.98343280,.0002962,70.0019,99.4527,272.8804,87.2016,0,U,67098,999,2955,.6349E-3,.7493E-4,0
STARLINK-36193,2025-298AA,2026-06-26T17:31:05.355840,14.98308891,.0003485,70.0028,99.4173,254.2592,105.8183,0,U,67099,999,2955,.10907E-2,.12939E-3,0
STARLINK-36215,2025-298AB,2026-06-26T18:00:52.449984,14.98333517,.0002705,70.0021,99.4713,266.1577,93.9273,0,U,67100,999,2955,.15733E-3,.1785E-4,0
STARLINK-36200,2025-298AC,2026-06-26T04:11:57.976512,14.98335723,.00025977,70.0015,101.0796,269.9566,90.1296,0,U,67101,999,2946,.18526101E-3,.2119E-4,0
STARLINK-36255,2025-299A,2026-06-26T13:11:00.411648,15.27587096,.0000428,42.9955,274.3238,266.3426,93.7377,0,U,67102,999,2976,.52933E-3,.14336E-3,0
STARLINK-36256,2025-299B,2026-06-26T14:35:54.729312,15.27575341,.0001822,42.9983,273.9097,276.7387,83.3258,0,U,67103,999,2977,.88447E-3,.24153E-3,0
STARLINK-36258,2025-299C,2026-06-26T14:56:15.887040,15.27569153,.0001491,42.9974,274.0046,285.0102,75.0585,0,U,67104,999,2977,.48347E-3,.13061E-3,0
